NORAD_CAT_ID,OBJECT_NAME,OBJECT_TYPE,EPOCH,MEAN_MOTION,ECCENTRICITY,INCLINATION,RA_OF_ASC_NODE,ARG_OF_PERICENTER,MEAN_ANOMALY,BSTAR,MEAN_MOTION_DOT,MEAN_MOTION_DDOT,TLE_LINE0,TLE_LINE1,TLE_LINE2,SEMIMAJOR_AXIS,PERIOD,APOGEE,PERIGEE,DECAYED
50163.0,STARLINK-3306,PAYLOAD,2022-01-27 22:00:00,15.73315863,0.0001804,53.2161,165.6381,33.2789,97.5724,-0.0034765,-0.00464875,0.0,0 STARLINK-3306,1 50163U 21125H   22027.91667824 -.00464875  00000-0 -34765-2 0  9995,2 50163  53.2161 165.6381 0001804  33.2789  97.5724 15.73315863  9184,6727.565,91.526,350.644,348.216,0.0
50163.0,STARLINK-3306,PAYLOAD,2022-01-28 06:00:02,15.73063328,0.0001541,53.217,163.9808,37.3852,182.373,-0.00050808,-0.00070915,0.0,0 STARLINK-3306,1 50163U 21125H   22028.25002315 -.00070915  00000-0 -50808-3 0  9996,2 50163  53.2170 163.9808 0001541  37.3852 182.3730 15.73063328  9246,6728.285,91.541,351.18699999999984,349.11300000000006,0.0
50163.0,STARLINK-3306,PAYLOAD,2022-01-28 10:00:00,15.73110209,0.0001776,53.2175,163.1539,31.3906,52.6715,-0.0022414,-0.00302983,0.0,0 STARLINK-3306,1 50163U 21125H   22028.41667824 -.00302983  00000-0 -22414-2 0  9990,2 50163  53.2175 163.1539 0001776  31.3906  52.6715 15.73110209  9263,6728.151,91.538,351.211,348.821,0.0
50163.0,STARLINK-3306,PAYLOAD,2022-01-28 12:00:00,15.73058244,0.0001853,53.2175,162.7421,33.2821,162.977,-0.0022441,-0.00302688,0.0,0 STARLINK-3306,1 50163U 21125H   22028.50001157 -.00302688  00000-0 -22441-2 0  9993,2 50163  53.2175 162.7421 0001853  33.2821 162.9770 15.73058244  3676,6728.299,91.541,351.411,348.918,0.0
50163.0,STARLINK-3306,PAYLOAD,2022-01-28 22:00:00,15.72668265,0.0001705,53.2164,160.6845,31.5017,5.5758,-0.00078109,-0.00106432,0.0,0 STARLINK-3306,1 50163U 21125H   22028.91667824 -.00106432  00000-0 -78109-3 0  9999,2 50163  53.2164 160.6845 0001705  31.5017   5.5758 15.72668265  3661,6729.4119999999975,91.564,352.4240000000001,350.129,0.0
50163.0,STARLINK-3306,PAYLOAD,2022-01-29 14:00:01,15.72386802,0.0002131,53.2175,157.3845,27.0283,186.3827,-0.002292,-0.00300493,0.0,0 STARLINK-3306,1 50163U 21125H   22029.58334491 -.00300493  00000-0 -22920-2 0  9996,2 50163  53.2175 157.3845 0002131  27.0283 186.3827 15.72386802  9457,6730.215,91.581,353.514,350.645,0.0
50163.0,STARLINK-3306,PAYLOAD,2022-01-29 22:00:00,15.7218396,0.0001522,53.2172,155.7368,41.0759,260.1615,-0.0023546,-0.00305799,0.0,0 STARLINK-3306,1 50163U 21125H   22029.91667824 -.00305799  00000-0 -23546-2 0  9991,2 50163  53.2172 155.7368 0001522  41.0759 260.1615 15.72183960  3701,6730.794,91.592,353.68300000000005,351.634,0.0
50163.0,STARLINK-3306,PAYLOAD,2022-01-30 14:00:01,15.71770936,0.0002181,53.2171,152.4433,21.9396,94.2108,-0.00239,-0.00305067,0.0,0 STARLINK-3306,1 50163U 21125H   22030.58334491 -.00305067  00000-0 -23900-2 0  9999,2 50163  53.2171 152.4433 0002181  21.9396  94.2108 15.71770936  3698,6731.973000000001,91.616,355.306,352.369,0.0
50163.0,STARLINK-3306,PAYLOAD,2022-01-30 22:00:00,15.71565711,0.0001625,53.2171,150.797,36.1832,167.05200000000005,-0.0024286,-0.00307189,0.0,0 STARLINK-3306,1 50163U 21125H   22030.91667824 -.00307189  00000-0 -24286-2 0  9990,2 50163  53.2171 150.7970 0001625  36.1832 167.0520 15.71565711  9663,6732.559,91.628,355.51800000000014,353.33,0.0
50163.0,STARLINK-3306,PAYLOAD,2022-01-31 14:00:01,15.7115261,0.0001817,53.2175,147.5064,30.4113,346.3156,-0.0024546,-0.00305192,0.0,0 STARLINK-3306,1 50163U 21125H   22031.58335648 -.00305192  00000-0 -24546-2 0  9991,2 50163  53.2175 147.5064 0001817  30.4113 346.3156 15.71152610  3758,6733.739000000001,91.652,356.827,354.38,0.0
50163.0,STARLINK-3306,PAYLOAD,2022-01-31 22:00:01,15.70946291,0.0001604,53.2172,145.8612,35.7765,67.2924,-0.0024712,-0.00304604,0.0,0 STARLINK-3306,1 50163U 21125H   22031.91668981 -.00304604  00000-0 -24712-2 0  9999,2 50163  53.2172 145.8612 0001604  35.7765  67.2924 15.70946291  9810,6734.328,91.664,357.273,355.11300000000006,0.0
50163.0,STARLINK-3306,PAYLOAD,2022-02-01 14:00:01,15.70532596,0.0002101,53.2173,142.5741,25.5383,249.471,-0.0025012,-0.00303078,0.0,0 STARLINK-3306,1 50163U 21125H   22032.58335648 -.00303078  00000-0 -25012-2 0  9992,2 50163  53.2173 142.5741 0002101  25.5383 249.4710 15.70532596  3690,6735.511,91.689,358.791,355.961,0.0
50163.0,STARLINK-3306,PAYLOAD,2022-02-01 22:00:00,15.70327662,0.000153,53.2173,140.9306,37.1608,323.3811,-0.0025344,-0.00304387,0.0,0 STARLINK-3306,1 50163U 21125H   22032.91667824 -.00304387  00000-0 -25344-2 0  9995,2 50163  53.2173 140.9306 0001530  37.1608 323.3811 15.70327662  3693,6736.097,91.701,358.992,356.931,0.0
50163.0,STARLINK-3306,PAYLOAD,2022-02-02 06:00:00,15.7012098,0.0001737,53.2174,139.2864,31.1932,54.7005,-0.0025488,-0.00303526,0.0,0 STARLINK-3306,1 50163U 21125H   22033.25001157 -.00303526  00000-0 -25488-2 0  9997,2 50163  53.2174 139.2864 0001737  31.1932  54.7005 15.70120980 10026,6736.688,91.713,359.723,357.3830000000001,0.0
50163.0,STARLINK-3306,PAYLOAD,2022-02-02 14:00:01,15.69914911,0.0002002,53.2174,137.6463,30.231,140.7645,-0.0025732,-0.00303813,0.0,0 STARLINK-3306,1 50163U 21125H   22033.58334491 -.00303813  00000-0 -25732-2 0  9994,2 50163  53.2174 137.6463 0002002  30.2310 140.7645 15.69914911  3705,6737.276999999999,91.725,360.491,357.7940000000001,0.0
50163.0,STARLINK-3306,PAYLOAD,2022-02-02 22:00:00,15.69710303,0.0001581,53.2174,136.004,40.6797,215.1711,-0.0026232,-0.00306938,0.0,0 STARLINK-3306,1 50163U 21125H   22033.91667824 -.00306938  00000-0 -26232-2 0  9997,2 50163  53.2174 136.0040 0001581  40.6797 215.1711 15.69710303  3704,6737.863,91.737,360.793,358.663,0.0
50163.0,STARLINK-3306,PAYLOAD,2022-02-03 14:00:01,15.69298878,0.0002153,53.2174,132.7233,20.1691,44.6479,-0.002677,-0.00307922,0.0,0 STARLINK-3306,1 50163U 21125H   22034.58334491 -.00307922  00000-0 -26770-2 0  9993,2 50163  53.2174 132.7233 0002153  20.1691  44.6479 15.69298878 10233,6739.04,91.761,362.356,359.455,0.0
50163.0,STARLINK-3306,PAYLOAD,2022-02-03 22:00:01,15.690915099999998,0.0001631999999999,53.2173,131.0821,35.9546,113.0412,-0.0026843,-0.00306152,0.0,0 STARLINK-3306,1 50163U 21125H   22034.91668981 -.00306152  00000-0 -26843-2 0  9999,2 50163  53.2173 131.0821 0001632  35.9546 113.0412 15.69091510  3695,6739.634,91.773,362.599,360.399,0.0
50163.0,STARLINK-3306,PAYLOAD,2022-02-04 14:00:01,15.68679245,0.0001809,53.2175,127.8045,32.7544,283.7218,-0.0027327,-0.00306406,0.0,0 STARLINK-3306,1 50163U 21125H   22035.58335648 -.00306406  00000-0 -27327-2 0  9994,2 50163  53.2175 127.8045 0001809  32.7544 283.7218 15.68679245 10397,6740.815,91.797,363.899,361.461,0.0
50163.0,STARLINK-3306,PAYLOAD,2022-02-04 22:00:00,15.68472587,0.0001411,53.2175,126.1649,41.9743,357.8061,-0.0027424,-0.00304917,0.0,0 STARLINK-3306,1 50163U 21125H   22035.91667824 -.00304917  00000-0 -27424-2 0  9998,2 50163  53.2175 126.1649 0001411  41.9743 357.8061 15.68472587  3695,6741.406999999997,91.809,364.223,362.321,0.0
50163.0,STARLINK-3306,PAYLOAD,2022-02-05 14:00:01,15.6805948,0.0001929,53.2176,122.8903,33.1957,172.579,-0.0027753,-0.00303465,0.0,0 STARLINK-3306,1 50163U 21125H   22036.58334491 -.00303465  00000-0 -27753-2 0  9995,2 50163  53.2176 122.8903 0001929  33.1957 172.5790 15.68059480  3690,6742.590999999999,91.833,365.757,363.155,0.0
50163.0,STARLINK-3306,PAYLOAD,2022-02-05 22:00:01,15.67855284,0.0001554,53.2174,121.2519,41.2177,247.2483,-0.0028372,-0.00307468,0.0,0 STARLINK-3306,1 50163U 21125H   22036.91668981 -.00307468  00000-0 -28372-2 0  9991,2 50163  53.2174 121.2519 0001554  41.2177 247.2483 15.67855284 10605,6743.176,91.845,366.089,363.994,0.0
50163.0,STARLINK-3306,PAYLOAD,2022-02-06 14:00:01,15.67441305,0.0002031,53.2174,117.9807,26.7352,66.2387,-0.002851,-0.00303941,0.0,0 STARLINK-3306,1 50163U 21125H   22037.58335648 -.00303941  00000-0 -28510-2 0  9992,2 50163  53.2174 117.9807 0002031  26.7352  66.2387 15.67441305  3688,6744.364000000001,91.869,367.598,364.859,0.0
50163.0,STARLINK-3306,PAYLOAD,2022-02-06 22:00:00,15.67236722,0.0001746,53.2175,116.3436,34.8485,139.9432,-0.0029059,-0.0030708,0.0,0 STARLINK-3306,1 50163U 21125H   22037.91667824 -.00307080  00000-0 -29059-2 0  9990,2 50163  53.2175 116.3436 0001746  34.8485 139.9432 15.67236722  3694,6744.951,91.881,367.99300000000005,365.638,0.0
50163.0,STARLINK-3306,PAYLOAD,2022-02-07 06:00:00,15.67029245,0.0001936,53.2177,114.7081,31.2005,225.2265,-0.0028942,-0.00303423,0.0,0 STARLINK-3306,1 50163U 21125H   22038.25001157 -.00303423  00000-0 -28942-2 0  9996,2 50163  53.2177 114.7081 0001936  31.2005 225.2265 15.67029245 10819,6745.545999999999,91.894,368.717,366.105,0.0
50163.0,STARLINK-3306,PAYLOAD,2022-02-07 14:00:01,15.66823441,0.0001999,53.2177,113.0756,27.1911,310.6221,-0.0029403,-0.00305608,0.0,0 STARLINK-3306,1 50163U 21125H   22038.58334491 -.00305608  00000-0 -29403-2 0  9992,2 50163  53.2177 113.0756 0001999  27.1911 310.6221 15.66823441  3697,6746.137,91.906,369.35,366.653,0.0
50163.0,STARLINK-3306,PAYLOAD,2022-02-07 22:00:00,15.66616254,0.0001716,53.2174,111.4399,30.7696,28.1842,-0.0029419,-0.00303286,0.0,0 STARLINK-3306,1 50163U 21125H   22038.91667824 -.00303286  00000-0 -29419-2 0  9995,2 50163  53.2174 111.4399 0001716  30.7696  28.1842 15.66616254  3700,6746.731,91.918,369.754,367.439,0.0
50163.0,STARLINK-3306,PAYLOAD,2022-02-08 14:00:01,15.66202117,0.000195,53.2174,108.1749,27.442,193.0473,-0.0029577,-0.00299988,0.0,0 STARLINK-3306,1 50163U 21125H   22039.58334491 -.00299988  00000-0 -29577-2 0  9998,2 50163  53.2174 108.1749 0001950  27.4420 193.0473 15.66202117 11025,6747.920999999999,91.942,371.102,368.47,0.0
50163.0,STARLINK-3306,PAYLOAD,2022-02-08 22:00:01,15.65999798,0.0001671,53.2175,106.5406,34.9002,266.0502,-0.003056,-0.00307143,0.0,0 STARLINK-3306,1 50163U 21125H   22039.91668981 -.00307143  00000-0 -30560-2 0  9996,2 50163  53.2175 106.5406 0001671  34.9002 266.0502 15.65999798  3704,6748.502,91.954,371.495,369.239,0.0
